ONEWEB-0665             
1 55825U 23029AF  24356.51468357  .00000037  00000+0  64374-4 0  9997
2 55825  87.9006  37.6358 0001518  93.0624 267.0679 13.14505968 88115
ONEWEB-0666             
1 55826U 23029AG  24356.16047608  .00000086  00000+0  17959-3 0  9991
2 55826  87.9254  22.5175 0002169  97.5503 262.5877 13.20770130 89471
ONEWEB-0667             
1 55827U 23029AH  24356.53294039 -.00000204  00000+0 -53251-3 0  9994
2 55827  87.9254  22.3766 0001743  88.1551 271.9782 13.20770798 90192
ONEWEB-0669             
1 55828U 23029AJ  24356.52821978 -.00000259  00000+0 -66925-3 0  9994
2 55828  87.9252  22.4140 0002568  88.3772 271.7655 13.20772163 89510
ONEWEB-0670             
1 55829U 23029AK  24356.56859080  .00000248  00000+0  63313-3 0  9998
2 55829  87.9005  37.6369 0001726  81.5088 278.6237 13.14505124 88142
ONEWEB-0671             
1 55830U 23029AL  24356.13944727 -.00000156  00000+0 -42324-3 0  9995
2 55830  87.9175  52.9593 0001735  89.1193 271.0138 13.19724630 87272
ONEWEB-0672             
1 55831U 23029AM  24356.52348231 -.00000168  00000+0 -44607-3 0  9996
2 55831  87.9255  22.3994 0002122 100.5266 259.6106 13.20771018 90194
ONEWEB-0673             
1 55832U 23029AN  24356.57065987 -.00000250  00000+0 -65599-3 0  9991
2 55832  87.9174  52.8385 0001518 104.4471 255.6830 13.19726275 87331
